OBJECT_NAME,OBJECT_ID,EPOCH,MEAN_MOTION,ECCENTRICITY,INCLINATION,RA_OF_ASC_NODE,ARG_OF_PERICENTER,MEAN_ANOMALY,EPHEMERIS_TYPE,CLASSIFICATION_TYPE,NORAD_CAT_ID,ELEMENT_SET_NO,REV_AT_EPOCH,BSTAR,MEAN_MOTION_DOT,MEAN_MOTION_DDOT
IONOSFERA-M 3,2025-155A,2026-06-11T21:30:38.123712,14.21485614,.0000704,98.6022,124.9345,166.7712,193.3484,0,U,64876,999,4565,.35942E-4,.36E-6,0
IONOSFERA-M 4,2025-155B,2026-06-11T20:39:27.587808,14.21487775,.0000851,98.6021,124.8173,118.9139,241.2124,0,U,64877,999,4564,.35464E-4,.35E-6,0
MICROCARB,2025-156A,2026-06-11T18:44:24.544032,14.72319930,.0015025,97.9832,240.0146,291.1517,68.8085,0,U,64899,999,4717,.71798E-4,.405E-5,0
CO3D 3,2025-156B,2026-06-11T18:57:49.951008,15.20196571,.0001204,97.4334,241.5605,130.6824,229.4516,0,U,64900,999,4871,.17772E-3,.3781E-4,0
CO3D 4,2025-156C,2026-06-11T15:48:28.863360,15.20199962,.000063,97.4332,241.4307,25.0477,335.0788,0,U,64901,999,4869,.1663E-4,.293E-5,0
CO3D 2,2025-156D,2026-06-11T16:35:15.154368,15.20196523,.0001467,97.4332,241.3620,110.6797,249.4595,0,U,64902,999,4869,.22548E-3,.4816E-4,0
CO3D 1,2025-156E,2026-06-11T16:35:28.567104,15.20198900,.0001246,97.4331,241.3623,115.1017,245.0348,0,U,64903,999,4869,.23923E-3,.5114E-4,0
PRSC-S1,2025-164A,2026-06-11T19:51:36.781056,15.06409324,.0007296,41.1313,317.9969,311.2897,48.7289,0,U,65055,999,4762,.32917E-3,.4764E-4,0
SENTINEL-6B,2025-264A,2026-06-11T07:23:49.579872,12.80929900,.0008038,66.0388,147.3891,269.2334,90.7760,0,U,66514,999,2641,.13148E-3,-.31E-6,0
CAS500-3,2025-274F,2026-06-11T16:51:15.086016,14.88308003,.0006482,97.7448,90.8782,124.5939,235.5890,0,U,66655,999,2933,.12477E-3,.11E-4,0
CSG-3,2026-001A,2026-06-11T12:40:31.531872,14.82149802,.0001338,97.8887,346.2120,93.0416,267.0951,0,U,67304,999,2362,.38257E-4,.252E-5,0
PRSC-E03,2026-092A,2026-06-11T19:40:37.845408,15.06641885,.0004645,37.9997,121.3293,324.9334,35.1121,0,U,68835,999,714,.15682E-3,.2261E-4,0
CAS500-2,2026-100AK,2026-06-11T16:33:51.837120,15.20525114,.0011138,97.4088,60.6400,51.6934,308.5301,0,U,69013,999,597,.26172E-3,.5664E-4,0
